0 DELTA 1 DEB
1 10240U 77065BR  13280.90582935  .00002171  00000-0  16937-2 0  2652
2 10240 029.3884 094.1337 0724409 128.1915 018.4926 13.07576265463604
0 DELTA 1 DEB
1 10240U 77065BR  13281.73835341  .00002540  00000-0  19889-2 0  2666
2 10240 029.3889 090.1895 0724399 134.5219 337.4042 13.07584211463715
0 DELTA 1 DEB
1 10240U 77065BR  13284.47319431  .00002939  00000-0  23016-2 0  2677
2 10240 029.3905 077.2328 0724659 155.3417 251.1527 13.07601715464070
0 DELTA 1 DEB
1 10240U 77065BR  13285.79209211  .00003236  00000-0  25383-2 0  2688
2 10240 029.3895 070.9867 0724635 165.3607 339.7045 13.07607163464242
0 DELTA 1 DEB
1 10240U 77065BR  13287.53485770  .00004119  00000-0  32432-2 0  2693
2 10240 029.3901 062.7308 0724596 178.6041 263.6301 13.07621240464471
0 DELTA 1 DEB
1 10240U 77065BR  13289.52031339  .00005351  00000-0  42261-2 0  2704
2 10240 029.3917 053.3242 0724583 193.6895 250.1240 13.07642016464737
0 DELTA 1 DEB
1 10240U 77065BR  13290.59559197  .00005063  00000-0  39929-2 0  2718
2 10240 029.3924 048.2300 0724674 201.8643 272.0097 13.07648749464874
0 DELTA 1 DEB
1 10240U 77065BR  13292.49944314  .00003839  00000-0  30101-2 0  2721
2 10240 029.3937 039.2104 0724869 216.3354 234.4890 13.07661816465128
0 DELTA 1 DEB
1 10240U 77065BR  13293.73747885  .00004639  00000-0  36480-2 0  2739
2 10240 029.3939 033.3459 0724869 225.7459 302.6772 13.07673544465283
0 DELTA 1 DEB
1 10240U 77065BR  13294.65104934  .00006066  00000-0  47861-2 0  2745
2 10240 029.3944 029.0193 0724918 232.6983 283.4419 13.07684912465409
